{
  "type": "FeatureCollection",
  "features": [
    {
      "type": "Feature",
      "properties": {
        "norad_id": 30717,
        "name": "FENGYUN 1C DEB",
        "group": "fengyun-1c-debris",
        "lat": -27.338518462985128,
        "lon": 53.616073410581585,
        "alt_km": 807.5720410581425,
        "timestamp": "2025-12-04T07:39:36.413661+00:00",
        "meta_object_name": "FENGYUN 1C DEB",
        "meta_object_id": "1999-025ASB",
        "meta_epoch": "2025-11-30T02:21:23.039712",
        "meta_mean_motion": 14.20428729,
        "meta_eccentricity": 0.00475668,
        "meta_inclination": 99.0182,
        "meta_ra_of_asc_node": 44.6037,
        "meta_arg_of_pericenter": 294.0563,
        "meta_mean_anomaly": 65.5639,
        "meta_ephemeris_type": 0,
        "meta_classification_type": "U",
        "meta_norad_cat_id": 30717,
        "meta_element_set_no": 999,
        "meta_rev_at_epoch": 96357,
        "meta_bstar": 0.0015014558,
        "meta_mean_motion_dot": 3.211e-05,
        "meta_mean_motion_ddot": 0,
        "tle_line1": "1 30717U 99025ASB 25334.09818333  .00003211  00000+0  15015-2 0  9995",
        "tle_line2": "2 30717  99.0182  44.6037 0047566 294.0563  65.5639 14.20428729963573"
      },
      "geometry": {
        "type": "Point",
        "coordinates": [
          53.616073410581585,
          -27.338518462985128
        ]
      }
    },
    {
      "type": "Feature",
      "properties": {
        "norad_id": 30718,
        "name": "FENGYUN 1C DEB",
        "group": "fengyun-1c-debris",
        "lat": -70.01615833558925,
        "lon": 84.12050179793873,
        "alt_km": 830.8587435238724,
        "timestamp": "2025-12-04T07:39:36.413670+00:00",
        "meta_object_name": "FENGYUN 1C DEB",
        "meta_object_id": "1999-025ASC",
        "meta_epoch": "2025-12-03T21:53:03.840000",
        "meta_mean_motion": 14.24238658,
        "meta_eccentricity": 0.0057673,
        "meta_inclination": 98.8919,
        "meta_ra_of_asc_node": 58.2093,
        "meta_arg_of_pericenter": 181.2057,
        "meta_mean_anomaly": 178.8991,
        "meta_ephemeris_type": 0,
        "meta_classification_type": "U",
        "meta_norad_cat_id": 30718,
        "meta_element_set_no": 999,
        "meta_rev_at_epoch": 96648,
        "meta_bstar": 0.0034219201,
        "meta_mean_motion_dot": 7.993e-05,
        "meta_mean_motion_ddot": 0,
        "tle_line1": "1 30718U 99025ASC 25337.91185000  .00007993  00000+0  34219-2 0  9996",
        "tle_line2": "2 30718  98.8919  58.2093 0057673 181.2057 178.8991 14.24238658966483"
      },
      "geometry": {
        "type": "Point",
        "coordinates": [
          84.12050179793873,
          -70.01615833558925
        ]
      }
    },
    {
      "type": "Feature",
      "properties": {
        "norad_id": 30719,
        "name": "FENGYUN 1C DEB",
        "group": "fengyun-1c-debris",
        "lat": -38.70939671486427,
        "lon": 126.69489196498922,
        "alt_km": 705.7681883364849,
        "timestamp": "2025-12-04T07:39:36.413679+00:00",
        "meta_object_name": "FENGYUN 1C DEB",
        "meta_object_id": "1999-025ASD",
        "meta_epoch": "2025-12-03T15:22:40.274688",
        "meta_mean_motion": 14.58718997,
        "meta_eccentricity": 0.00118237,
        "meta_inclination": 98.8869,
        "meta_ra_of_asc_node": 118.7662,
        "meta_arg_of_pericenter": 217.9488,
        "meta_mean_anomaly": 142.0877,
        "meta_ephemeris_type": 0,
        "meta_classification_type": "U",
        "meta_norad_cat_id": 30719,
        "meta_element_set_no": 999,
        "meta_rev_at_epoch": 97316,
        "meta_bstar": 0.0057354944,
        "meta_mean_motion_dot": 0.00026842,
        "meta_mean_motion_ddot": 0,
        "tle_line1": "1 30719U 99025ASD 25337.64074392  .00026842  00000+0  57355-2 0  9998",
        "tle_line2": "2 30719  98.8869 118.7662 0011823 217.9488 142.0877 14.58718997973169"
      },
      "geometry": {
        "type": "Point",
        "coordinates": [
          126.69489196498922,
          -38.70939671486427
        ]
      }
    },
    {
      "type": "Feature",
      "properties": {
        "norad_id": 30720,
        "name": "FENGYUN 1C DEB",
        "group": "fengyun-1c-debris",
        "lat": 18.94846894441609,
        "lon": -25.3664901338071,
        "alt_km": 817.5374921371213,
        "timestamp": "2025-12-04T07:39:36.413688+00:00",
        "meta_object_name": "FENGYUN 1C DEB",
        "meta_object_id": "1999-025ASE",
        "meta_epoch": "2025-12-01T10:17:46.773312",
        "meta_mean_motion": 14.2908859,
        "meta_eccentricity": 0.00323724,
        "meta_inclination": 99.0369,
        "meta_ra_of_asc_node": 148.5071,
        "meta_arg_of_pericenter": 2.1711,
        "meta_mean_anomaly": 57.7271,
        "meta_ephemeris_type": 0,
        "meta_classification_type": "U",
        "meta_norad_cat_id": 30720,
        "meta_element_set_no": 999,
        "meta_rev_at_epoch": 97327,
        "meta_bstar": 0.00040425799,
        "meta_mean_motion_dot": 9.83e-06,
        "meta_mean_motion_ddot": 0,
        "tle_line1": "1 30720U 99025ASE 25335.42901358  .00000983  00000+0  40426-3 0  9995",
        "tle_line2": "2 30720  99.0369 148.5071 0032372   2.1711  57.7271 14.29088590973278"
      },
      "geometry": {
        "type": "Point",
        "coordinates": [
          -25.3664901338071,
          18.94846894441609
        ]
      }
    },
    {
      "type": "Feature",
      "properties": {
        "norad_id": 30721,
        "name": "FENGYUN 1C DEB",
        "group": "fengyun-1c-debris",
        "lat": -9.597394454418447,
        "lon": -72.4531172224454,
        "alt_km": 680.2300498362729,
        "timestamp": "2025-12-04T07:39:36.413698+00:00",
        "meta_object_name": "FENGYUN 1C DEB",
        "meta_object_id": "1999-025ASF",
        "meta_epoch": "2025-12-03T15:03:11.516832",
        "meta_mean_motion": 14.7127635,
        "meta_eccentricity": 0.00273375,
        "meta_inclination": 98.71,
        "meta_ra_of_asc_node": 108.2926,
        "meta_arg_of_pericenter": 9.5726,
        "meta_mean_anomaly": 117.1394,
        "meta_ephemeris_type": 0,
        "meta_classification_type": "U",
        "meta_norad_cat_id": 30721,
        "meta_element_set_no": 999,
        "meta_rev_at_epoch": 97708,
        "meta_bstar": 0.0047409938,
        "meta_mean_motion_dot": 0.00029504,
        "meta_mean_motion_ddot": 0,
        "tle_line1": "1 30721U 99025ASF 25337.62721663  .00029504  00000+0  47410-2 0  9998",
        "tle_line2": "2 30721  98.7100 108.2926 0027337   9.5726 117.1394 14.71276350977082"
      },
      "geometry": {
        "type": "Point",
        "coordinates": [
          -72.4531172224454,
          -9.597394454418447
        ]
      }
    },
    {
      "type": "Feature",
      "properties": {
        "norad_id": 30723,
        "name": "FENGYUN 1C DEB",
        "group": "fengyun-1c-debris",
        "lat": -78.64883867610553,
        "lon": -166.81369756111593,
        "alt_km": 752.3703830185304,
        "timestamp": "2025-12-04T07:39:36.413707+00:00",
        "meta_object_name": "FENGYUN 1C DEB",
        "meta_object_id": "1999-025ASH",
        "meta_epoch": "2025-12-03T17:42:49.827744",
        "meta_mean_motion": 14.41129588,
        "meta_eccentricity": 0.00148167,
        "meta_inclination": 98.8448,
        "meta_ra_of_asc_node": 63.4491,
        "meta_arg_of_pericenter": 288.3809,
        "meta_mean_anomaly": 201.4898,
        "meta_ephemeris_type": 0,
        "meta_classification_type": "U",
        "meta_norad_cat_id": 30723,
        "meta_element_set_no": 999,
        "meta_rev_at_epoch": 97241,
        "meta_bstar": 0.0032543146,
        "meta_mean_motion_dot": 0.00010469,
        "meta_mean_motion_ddot": 0,
        "tle_line1": "1 30723U 99025ASH 25337.73807671  .00010469  00000+0  32543-2 0  9997",
        "tle_line2": "2 30723  98.8448  63.4491 0014816 288.3809 201.4898 14.41129588972411"
      },
      "geometry": {
        "type": "Point",
        "coordinates": [
          -166.81369756111593,
          -78.64883867610553
        ]
      }
    },
    {
      "type": "Feature",
      "properties": {
        "norad_id": 30724,
        "name": "FENGYUN 1C DEB",
        "group": "fengyun-1c-debris",
        "lat": -58.15882889308808,
        "lon": 177.62841166036523,
        "alt_km": 711.4687277121311,
        "timestamp": "2025-12-04T07:39:36.413716+00:00",
        "meta_object_name": "FENGYUN 1C DEB",
        "meta_object_id": "1999-025ASJ",
        "meta_epoch": "2025-12-02T10:57:10.970208",
        "meta_mean_motion": 14.37002332,
        "meta_eccentricity": 0.00930548,
        "meta_inclination": 99.3161,
        "meta_ra_of_asc_node": 160.2865,
        "meta_arg_of_pericenter": 290.0804,
        "meta_mean_anomaly": 99.0491,
        "meta_ephemeris_type": 0,
        "meta_classification_type": "U",
        "meta_norad_cat_id": 30724,
        "meta_element_set_no": 999,
        "meta_rev_at_epoch": 98305,
        "meta_bstar": 0.00053378755,
        "meta_mean_motion_dot": 1.61e-05,
        "meta_mean_motion_ddot": 0,
        "tle_line1": "1 30724U 99025ASJ 25336.45637697  .00001610  00000+0  53379-3 0  9994",
        "tle_line2": "2 30724  99.3161 160.2865 0093054 290.0804  99.0491 14.37002332983051"
      },
      "geometry": {
        "type": "Point",
        "coordinates": [
          177.62841166036523,
          -58.15882889308808
        ]
      }
    }
  ]
}